ATLAS CENTAUR 2         
1 00694U 63047A   26037.36886599  .00001718  00000+0  19738-3 0  9998
2 00694  30.3556  10.6655 0548105 164.2980 197.5371 14.11980569127196
THOR AGENA D R/B        
1 00733U 64002A   26037.61240186  .00000341  00000+0  13897-3 0  9999
2 00733  99.1229  49.2576 0032732 350.7528   9.3048 14.34000646233849
SL-3 R/B                
1 00877U 64053B   26037.07496367  .00000471  00000+0  11546-3 0  9991
2 00877  65.0763  63.9220 0078157 302.2599  57.0943 14.61334532262179
SL-8 R/B                
1 02802U 67045B   26037.43373297  .00000383  00000+0  11348-3 0  9993
2 02802  74.0100  46.4592 0063001  60.6707 300.0725 14.45592060 84502
SL-8 R/B                
1 03230U 68040B   26037.36173423  .00005517  00000+0  40978-3 0  9991
2 03230  74.0326  17.6907 0025481 210.7368 149.2330 15.03017923 85308
OAO 2                   
1 03597U 68110A   26037.18654005  .00000401  00000+0  11313-3 0  9993
2 03597  34.9935  81.1080 0006018 302.2637  57.7470 14.47288338 14536
ISIS 1                  
1 03669U 69009A   26037.29746010  .00000453  00000+0  31082-3 0  9993
2 03669  88.4554 158.7291 1707838 152.5019 217.7992 11.30400528344989
SERT 2                  
1 04327U 70009A   26037.27598498  .00000046  00000+0  11954-3 0  9994
2 04327  99.2721 342.0956 0004022 242.0948 278.4609 13.58726533775620
SL-3 R/B                
1 05118U 71028B   26037.60698344  .00035327  00000+0  45477-3 0  9990
2 05118  81.2351  90.3519 0017598  43.9650 316.2998 15.58685550983827
ASTEX 1                 
1 05560U 71089A   26037.23194815  .00000847  00000+0  21546-3 0  9991
2 05560  92.7153 141.5818 0015437 182.6748 177.4379 14.50731917857746
SL-8 R/B                
1 05730U 71119B   26037.61463634  .00012437  00000+0  64549-3 0  9992
2 05730  73.8853 233.7648 0554049 206.7721 150.3835 14.36912669651022
OAO 3 (COPERNICUS)      
1 06153U 72065A   26037.27426090  .00000579  00000+0  12318-3 0  9991
2 06153  35.0054 116.2956 0007251 264.9979 137.3252 14.59969687841601
