CCSDS_OMM_VERS = 2.0
CREATION_DATE  = 
ORIGINATOR     = 

OBJECT_NAME    = ATLAS CENTAUR 2
OBJECT_ID      = 1963-047A
CENTER_NAME    = EARTH
REF_FRAME      = TEME
TIME_SYSTEM    = UTC
MEAN_ELEMENT_THEORY = SGP/SGP4

EPOCH          = 2026-02-06T08:51:10.021536
MEAN_MOTION    = 14.11980569
ECCENTRICITY   = .05481054
INCLINATION    = 30.3556
RA_OF_ASC_NODE = 10.6655
ARG_OF_PERICENTER = 164.2980
MEAN_ANOMALY   = 197.5371

EPHEMERIS_TYPE = 0
CLASSIFICATION_TYPE = U
NORAD_CAT_ID   = 694
ELEMENT_SET_NO = 999
REV_AT_EPOCH   = 12719
BSTAR          = .19737893E-3
MEAN_MOTION_DOT = .1718E-4
MEAN_MOTION_DDOT = 0

CCSDS_OMM_VERS = 2.0
CREATION_DATE  = 
ORIGINATOR     = 

OBJECT_NAME    = THOR AGENA D R/B
OBJECT_ID      = 1964-002A
CENTER_NAME    = EARTH
REF_FRAME      = TEME
TIME_SYSTEM    = UTC
MEAN_ELEMENT_THEORY = SGP/SGP4

EPOCH          = 2026-02-06T14:41:51.520704
MEAN_MOTION    = 14.34000646
ECCENTRICITY   = .00327321
INCLINATION    = 99.1229
RA_OF_ASC_NODE = 49.2576
ARG_OF_PERICENTER = 350.7528
MEAN_ANOMALY   = 9.3048

EPHEMERIS_TYPE = 0
CLASSIFICATION_TYPE = U
NORAD_CAT_ID   = 733
ELEMENT_SET_NO = 999
REV_AT_EPOCH   = 23384
BSTAR          = .1389738E-3
MEAN_MOTION_DOT = .341E-5
MEAN_MOTION_DDOT = 0

CCSDS_OMM_VERS = 2.0
CREATION_DATE  = 
ORIGINATOR     = 

OBJECT_NAME    = SL-3 R/B
OBJECT_ID      = 1964-053B
CENTER_NAME    = EARTH
REF_FRAME      = TEME
TIME_SYSTEM    = UTC
MEAN_ELEMENT_THEORY = SGP/SGP4

EPOCH          = 2026-02-06T01:47:56.861088
MEAN_MOTION    = 14.61334532
ECCENTRICITY   = .00781573
INCLINATION    = 65.0763
RA_OF_ASC_NODE = 63.9220
ARG_OF_PERICENTER = 302.2599
MEAN_ANOMALY   = 57.0943

EPHEMERIS_TYPE = 0
CLASSIFICATION_TYPE = U
NORAD_CAT_ID   = 877
ELEMENT_SET_NO = 999
REV_AT_EPOCH   = 26217
BSTAR          = .11545813E-3
MEAN_MOTION_DOT = .471E-5
MEAN_MOTION_DDOT = 0

CCSDS_OMM_VERS = 2.0
CREATION_DATE  = 
ORIGINATOR     = 

OBJECT_NAME    = SL-8 R/B
OBJECT_ID      = 1967-045B
CENTER_NAME    = EARTH
REF_FRAME      = TEME
TIME_SYSTEM    = UTC
MEAN_ELEMENT_THEORY = SGP/SGP4

EPOCH          = 2026-02-06T10:24:34.528608
MEAN_MOTION    = 14.45592060
ECCENTRICITY   = .00630014
INCLINATION    = 74.0100
RA_OF_ASC_NODE = 46.4592
ARG_OF_PERICENTER = 60.6707
MEAN_ANOMALY   = 300.0725

EPHEMERIS_TYPE = 0
CLASSIFICATION_TYPE = U
NORAD_CAT_ID   = 2802
ELEMENT_SET_NO = 999
REV_AT_EPOCH   = 8450
BSTAR          = .11348444E-3
MEAN_MOTION_DOT = .383E-5
MEAN_MOTION_DDOT = 0

CCSDS_OMM_VERS = 2.0
CREATION_DATE  = 
ORIGINATOR     = 

OBJECT_NAME    = SL-8 R/B
OBJECT_ID      = 1968-040B
CENTER_NAME    = EARTH
REF_FRAME      = TEME
TIME_SYSTEM    = UTC
MEAN_ELEMENT_THEORY = SGP/SGP4

EPOCH          = 2026-02-06T08:40:53.837472
MEAN_MOTION    = 15.03017923
ECCENTRICITY   = .00254813
INCLINATION    = 74.0326
RA_OF_ASC_NODE = 17.6907
ARG_OF_PERICENTER = 210.7368
MEAN_ANOMALY   = 149.2330

EPHEMERIS_TYPE = 0
CLASSIFICATION_TYPE = U
NORAD_CAT_ID   = 3230
ELEMENT_SET_NO = 999
REV_AT_EPOCH   = 8530
BSTAR          = .40977659E-3
MEAN_MOTION_DOT = .5517E-4
MEAN_MOTION_DDOT = 0

CCSDS_OMM_VERS = 2.0
CREATION_DATE  = 
ORIGINATOR     = 

OBJECT_NAME    = OAO 2
OBJECT_ID      = 1968-110A
CENTER_NAME    = EARTH
REF_FRAME      = TEME
TIME_SYSTEM    = UTC
MEAN_ELEMENT_THEORY = SGP/SGP4

EPOCH          = 2026-02-06T04:28:37.060320
MEAN_MOTION    = 14.47288338
ECCENTRICITY   = .00060185
INCLINATION    = 34.9935
RA_OF_ASC_NODE = 81.1080
ARG_OF_PERICENTER = 302.2637
MEAN_ANOMALY   = 57.7470

EPHEMERIS_TYPE = 0
CLASSIFICATION_TYPE = U
NORAD_CAT_ID   = 3597
ELEMENT_SET_NO = 999
REV_AT_EPOCH   = 1453
BSTAR          = .11313182E-3
MEAN_MOTION_DOT = .401E-5
MEAN_MOTION_DDOT = 0

CCSDS_OMM_VERS = 2.0
CREATION_DATE  = 
ORIGINATOR     = 

OBJECT_NAME    = ISIS 1
OBJECT_ID      = 1969-009A
CENTER_NAME    = EARTH
REF_FRAME      = TEME
TIME_SYSTEM    = UTC
MEAN_ELEMENT_THEORY = SGP/SGP4

EPOCH          = 2026-02-06T07:08:20.552640
MEAN_MOTION    = 11.30400528
ECCENTRICITY   = .17078387
INCLINATION    = 88.4554
RA_OF_ASC_NODE = 158.7291
ARG_OF_PERICENTER = 152.5019
MEAN_ANOMALY   = 217.7992

EPHEMERIS_TYPE = 0
CLASSIFICATION_TYPE = U
NORAD_CAT_ID   = 3669
ELEMENT_SET_NO = 999
REV_AT_EPOCH   = 34498
BSTAR          = .31082436E-3
MEAN_MOTION_DOT = .453E-5
MEAN_MOTION_DDOT = 0

CCSDS_OMM_VERS = 2.0
CREATION_DATE  = 
ORIGINATOR     = 

OBJECT_NAME    = SERT 2
OBJECT_ID      = 1970-009A
CENTER_NAME    = EARTH
REF_FRAME      = TEME
TIME_SYSTEM    = UTC
MEAN_ELEMENT_THEORY = SGP/SGP4

EPOCH          = 2026-02-06T06:37:25.102272
MEAN_MOTION    = 13.58726533
ECCENTRICITY   = .00040223
INCLINATION    = 99.2721
RA_OF_ASC_NODE = 342.0956
ARG_OF_PERICENTER = 242.0948
MEAN_ANOMALY   = 278.4609

EPHEMERIS_TYPE = 0
CLASSIFICATION_TYPE = U
NORAD_CAT_ID   = 4327
ELEMENT_SET_NO = 999
REV_AT_EPOCH   = 77562
BSTAR          = .11954339E-3
MEAN_MOTION_DOT = .46E-6
MEAN_MOTION_DDOT = 0

CCSDS_OMM_VERS = 2.0
CREATION_DATE  = 
ORIGINATOR     = 

OBJECT_NAME    = SL-3 R/B
OBJECT_ID      = 1971-028B
CENTER_NAME    = EARTH
REF_FRAME      = TEME
TIME_SYSTEM    = UTC
MEAN_ELEMENT_THEORY = SGP/SGP4

EPOCH          = 2026-02-06T14:34:03.369216
MEAN_MOTION    = 15.58685550
ECCENTRICITY   = .00175981
INCLINATION    = 81.2351
RA_OF_ASC_NODE = 90.3519
ARG_OF_PERICENTER = 43.9650
MEAN_ANOMALY   = 316.2998

EPHEMERIS_TYPE = 0
CLASSIFICATION_TYPE = U
NORAD_CAT_ID   = 5118
ELEMENT_SET_NO = 999
REV_AT_EPOCH   = 98382
BSTAR          = .45477185E-3
MEAN_MOTION_DOT = .35327E-3
MEAN_MOTION_DDOT = 0

CCSDS_OMM_VERS = 2.0
CREATION_DATE  = 
ORIGINATOR     = 

OBJECT_NAME    = ASTEX 1
OBJECT_ID      = 1971-089A
CENTER_NAME    = EARTH
REF_FRAME      = TEME
TIME_SYSTEM    = UTC
MEAN_ELEMENT_THEORY = SGP/SGP4

EPOCH          = 2026-02-06T05:34:00.320160
MEAN_MOTION    = 14.50731917
ECCENTRICITY   = .0015437
INCLINATION    = 92.7153
RA_OF_ASC_NODE = 141.5818
ARG_OF_PERICENTER = 182.6748
MEAN_ANOMALY   = 177.4379

EPHEMERIS_TYPE = 0
CLASSIFICATION_TYPE = U
NORAD_CAT_ID   = 5560
ELEMENT_SET_NO = 999
REV_AT_EPOCH   = 85774
BSTAR          = .21546E-3
MEAN_MOTION_DOT = .847E-5
MEAN_MOTION_DDOT = 0

CCSDS_OMM_VERS = 2.0
CREATION_DATE  = 
ORIGINATOR     = 

OBJECT_NAME    = SL-8 R/B
OBJECT_ID      = 1971-119B
CENTER_NAME    = EARTH
REF_FRAME      = TEME
TIME_SYSTEM    = UTC
MEAN_ELEMENT_THEORY = SGP/SGP4

EPOCH          = 2026-02-06T14:45:04.579776
MEAN_MOTION    = 14.36912669
ECCENTRICITY   = .05540498
INCLINATION    = 73.8853
RA_OF_ASC_NODE = 233.7648
ARG_OF_PERICENTER = 206.7721
MEAN_ANOMALY   = 150.3835

EPHEMERIS_TYPE = 0
CLASSIFICATION_TYPE = U
NORAD_CAT_ID   = 5730
ELEMENT_SET_NO = 999
REV_AT_EPOCH   = 65102
BSTAR          = .64548538E-3
MEAN_MOTION_DOT = .12437E-3
MEAN_MOTION_DDOT = 0

CCSDS_OMM_VERS = 2.0
CREATION_DATE  = 
ORIGINATOR     = 

OBJECT_NAME    = OAO 3 (COPERNICUS)
OBJECT_ID      = 1972-065A
CENTER_NAME    = EARTH
REF_FRAME      = TEME
TIME_SYSTEM    = UTC
MEAN_ELEMENT_THEORY = SGP/SGP4

EPOCH          = 2026-02-06T06:34:56.141760
MEAN_MOTION    = 14.59969687
ECCENTRICITY   = .00072511
INCLINATION    = 35.0054
RA_OF_ASC_NODE = 116.2956
ARG_OF_PERICENTER = 264.9979
MEAN_ANOMALY   = 137.3252

EPHEMERIS_TYPE = 0
CLASSIFICATION_TYPE = U
NORAD_CAT_ID   = 6153
ELEMENT_SET_NO = 999
REV_AT_EPOCH   = 84160
BSTAR          = .12317777E-3
MEAN_MOTION_DOT = .579E-5
MEAN_MOTION_DDOT = 0

